STARLINK-1597
1 16142C 20057AB  21326.14341069  .00003520  00000-0  23583-3 0  3261
2 16142  53.0532 158.1037 0001987  76.4812 313.9865 15.06398664    19
